STARLINK-31628          
1 59342U 24057Y   26167.20186289  .00001817  00000+0  75508-4 0  9994
2 59342  42.9992 350.8626 0002138 274.8281  85.2326 15.27588858124905
YUNHAI-3 02             
1 59343U 24058A   26167.83502750 -.00000032  00000+0  60293-5 0  9995
2 59343  98.8193 175.6933 0001656  60.8057 299.3281 14.13326711114696
EUTELSAT 36D            
1 59346U 24059A   26167.47798127  .00000154  00000+0  00000+0 0  9992
2 59346   0.0178  25.0182 0000227 190.7909 256.8898  1.00269883  8145
STARLINK-31605          
1 59348U 24060A   26167.40702289 -.00000924  00000+0 -24067-4 0  9994
2 59348  43.0067  51.6925 0001728 268.8348  91.2306 15.27571332125225
STARLINK-31532          
1 59349U 24060B   26167.42869255  .00000507  00000+0  27965-4 0  9999
2 59349  43.0193  62.2357 0002027 267.8895  92.1724 15.27577199125212
STARLINK-31593          
1 59350U 24060C   26167.00685621 -.00003970  00000+0 -13495-3 0  9999
2 59350  42.9951  64.2291 0001861 277.9112  82.1528 15.27542213125100
STARLINK-31555          
1 59351U 24060D   26167.43639155  .00000744  00000+0  36537-4 0  9995
2 59351  43.0003  62.2943 0001032 282.4351  77.6385 15.27588469125214
STARLINK-31561          
1 59352U 24060E   26166.02346932 -.00003998  00000+0 -13594-3 0  9991
2 59352  42.9876  69.7460 0002406 282.6756  77.3826 15.27554191124956
STARLINK-31413          
1 59353U 24060F   26167.41071584 -.00003483  00000+0 -11714-3 0  9995
2 59353  43.0061  62.1035 0000238 331.0393  29.0445 15.27571147125162
STARLINK-31422          
1 59354U 24060G   26167.39286302  .00000791  00000+0  38271-4 0  9994
2 59354  43.0040  62.8254 0000980 268.9186  91.1553 15.27580845125156
STARLINK-31416          
1 59355U 24060H   26167.43254127 -.00001275  00000+0 -36789-4 0  9992
2 59355  43.0067  62.2627 0001836 269.2064  90.8578 15.27578983125168
STARLINK-31552          
1 59356U 24060J   26166.99669270 -.00000070  00000+0  69752-5 0  9990
2 59356  43.0074  65.0279 0000831 263.2667  96.8090 15.27579123125092
STARLINK-31557          
1 59357U 24060K   26167.38291695  .00002314  00000+0  93571-4 0  9994
2 59357  43.0029  58.3955 0001208 253.2955 106.7765 15.27579704125205
STARLINK-31559          
1 59358U 24060L   26167.41839910 -.00000347  00000+0 -30577-5 0  9991
2 59358  42.9924  62.1614 0002910 265.4379  94.6140 15.27575645125166
STARLINK-31501          
1 59359U 24060M   26166.98896610  .00001214  00000+0  53624-4 0  9992
2 59359  43.0032  64.9585 0001605 269.4866  90.5802 15.27586034125097
STARLINK-31549          
1 59360U 24060N   26167.40685496 -.00000250  00000+0  44212-6 0  9995
2 59360  43.0003  62.0728 0000937 269.0018  91.0726 15.27572316125164
STARLINK-31560          
1 59361U 24060P   26166.98256064 -.00000028  00000+0  85266-5 0  9999
2 59361  43.0068  64.9094 0001840 295.1553  64.9107 15.27574670125090
STARLINK-31571          
1 59362U 24060Q   26166.98511075  .00001577  00000+0  66805-4 0  9992
2 59362  43.0124  64.9286 0001633 276.3729  83.6936 15.27591616125090
STARLINK-31553          
1 59363U 24060R   26166.97453975  .00000902  00000+0  42316-4 0  9998
2 59363  43.0138  57.9168 0001838 273.0873  86.9769 15.27577732125170
STARLINK-31547          
1 59364U 24060S   26166.96202030 -.00000258  00000+0  13869-6 0  9990
2 59364  43.0044  53.5047 0001170 268.2030  91.8687 15.27573965125229
STARLINK-31537          
1 59365U 24060T   26166.99283654  .00000342  00000+0  21960-4 0  9997
2 59365  42.9996  64.9779 0001637 273.5653  86.5011 15.27576464125094
STARLINK-31451          
1 59366U 24060U   26167.01067852 -.00000513  00000+0 -91203-5 0  9992
2 59366  42.9967  64.2585 0001595 274.5463  85.5206 15.27573710125102
STARLINK-31428          
1 59367U 24060V   26167.02223784  .00000970  00000+0  44761-4 0  9993
2 59367  43.0060  64.3458 0001070 278.4902  81.5829 15.27577251125109
STARLINK-31419          
1 59368U 24060W   26167.42098946  .00000373  00000+0  23073-4 0  9998
2 59368  43.0024  62.1746 0000139  72.2976 287.7891 15.27578012125163
STARLINK-31583          
1 59369U 24060X   26167.38259943  .00001726  00000+0  72236-4 0  9998
2 59369  42.9988  51.5030 0000849 272.8870  87.1884 15.27580548125282
STARLINK-31461          
1 59370U 24060Y   26163.47098036  .00000346  00000+0  22097-4 0  9997
2 59370  43.0036  73.7440 0001343 269.8309  90.2389 15.27578632124627
RESURS-P 4              
1 59371U 24061A   26167.87129634  .00002547  00000+0  84560-4 0  9994
2 59371  97.2754 115.7756 0002144 127.2782 232.8656 15.32129791123719
STARLINK-31641          
1 59374U 24062A   26167.26816722  .00000939  00000+0  38930-4 0  9995
2 59374  53.1592 159.2493 0001096 108.4542 251.6580 15.34385832124734
STARLINK-31430          
1 59375U 24062B   26167.69889611 -.00034691  00000+0 -10162-2 0  9999
2 59375  53.1599 157.6632 0000615 155.6248 204.4784 15.34528674124805
STARLINK-31695          
1 59376U 24062C   26167.69417492  .00001391  00000+0  52294-4 0  9997
2 59376  53.1608 155.5048 0001083  81.0833 279.0292 15.34391441124797
STARLINK-31716          
1 59377U 24062D   26167.55828613 -.00000358  00000+0  39863-7 0  9997
2 59377  53.1599 107.7825 0001407  80.9792 279.1368 15.30191179125441
STARLINK-31710          
1 59378U 24062E   26167.28863319  .00000817  00000+0  35312-4 0  9991
2 59378  53.1608 157.2354 0001309  94.2633 265.8519 15.34388459124737
STARLINK-31698          
1 59379U 24062F   26167.66682659  .00004576  00000+0  14650-3 0  9997
2 59379  53.1577 155.3451 0001186  90.6310 269.4828 15.34398823124790
STARLINK-31680          
1 59380U 24062G   26167.66529006 -.00001452  00000+0 -31872-4 0  9993
2 59380  53.1602 157.4559 0001335 118.9445 241.1692 15.34377668124769
STARLINK-31713          
1 59381U 24062H   26167.26605071  .00000309  00000+0  20280-4 0  9996
2 59381  53.1598 159.2306 0001085  82.1573 277.9553 15.34388925124705
STARLINK-31705          
1 59382U 24062J   26167.29495715  .00001244  00000+0  47975-4 0  9991
2 59382  53.1605 157.2742 0001142  74.4769 285.6359 15.34384720124734
STARLINK-31715          
1 59384U 24062L   26167.83335647  .00129527  00000+0  38110-2 0  9994
2 59384  53.1600 154.9861 0002000 336.4294   3.5071 15.34133966  5858
STARLINK-31717          
1 59385U 24062M   26167.67734759  .00000767  00000+0  33852-4 0  9998
2 59385  53.1614 155.3961 0001332  94.2744 265.8410 15.34387879124829
STARLINK-31688          
1 59386U 24062N   26167.27236301  .00000915  00000+0  38227-4 0  9991
2 59386  53.1598 159.2715 0001221  98.7630 261.3511 15.34388474124703
STARLINK-31714          
1 59387U 24062P   26167.67103295  .00000627  00000+0  29704-4 0  9991
2 59387  53.1599 155.3558 0001157  92.2465 267.8670 15.34389334124781
STARLINK-31643          
1 59388U 24062Q   26167.67313626 -.00000961  00000+0 -17302-4 0  9997
2 59388  53.1608 155.3693 0001239  93.5860 266.5284 15.34395601124834
STARLINK-31647          
1 59389U 24062R   26167.26347867  .00000732  00000+0  32820-4 0  9993
2 59389  53.1621 157.8266 0001154  96.5652 263.5482 15.34389941124760
STARLINK-31649          
1 59390U 24062S   26167.29705279  .00000120  00000+0  14680-4 0  9998
2 59390  53.1616 157.2875 0001176  88.5857 271.5280 15.34382806124777
STARLINK-31644          
1 59391U 24062T   26167.69684287  .00000727  00000+0  32651-4 0  9999
2 59391  53.1597 157.6545 0001445  80.9180 279.1986 15.34388053124809
STARLINK-31626          
1 59392U 24062U   26167.25227762  .00001138  00000+0  50549-4 0  9996
2 59392  53.1605 157.7172 0001207  82.0429 278.0708 15.30193968124762
STARLINK-31443          
1 59393U 24062V   26167.22080988  .00000593  00000+0  28678-4 0  9993
2 59393  53.1595 143.8516 0001215  85.6116 274.5025 15.34389599124955
STARLINK-31607          
1 59394U 24062W   26167.70050523  .00049425  00000+0  14765-2 0  9996
2 59394  53.1609 155.5364 0001383  79.2586 280.8572 15.34138265124824
YAOGAN-42 01            
1 59395U 24063A   26167.63601580  .00005809  00000+0  24269-3 0  9994
2 59395  34.9972 129.2980 0004397 300.8653  59.1629 15.22965682122762
STARLINK-31608          
1 59397U 24062X   26167.26978735  .00001082  00000+0  43178-4 0  9993
2 59397  53.1621 157.8279 0001350  94.3591 265.7566 15.34389635124711
STARLINK-31534          
1 59398U 24064A   26167.83862889  .00000783  00000+0  37984-4 0  9996
2 59398  42.9972 215.8634 0001755 269.6757  90.3894 15.27579943124336
STARLINK-31544          
1 59399U 24064B   26167.82463983  .00000075  00000+0  12233-4 0  9992
2 59399  43.0017 216.6174 0001189 277.1223  82.9493 15.27579524124382
STARLINK-31545          
1 59400U 24064C   26167.85022404 -.00002475  00000+0 -80520-4 0  9999
2 59400  43.0041 215.9519 0001268 291.9460  68.1257 15.27553202124392
STARLINK-31507          
1 59401U 24064D   26166.87581977  .00000486  00000+0  27177-4 0  9993
2 59401  43.0050 221.5325 0001794 269.5769  90.4877 15.27578951124189
STARLINK-31543          
1 59402U 24064E   26165.85534218 -.00001120  00000+0 -31181-4 0  9995
2 59402  43.0016 227.6370 0001084 275.8062  84.2666 15.27576284124080
STARLINK-31366          
1 59403U 24064F   26167.41047697  .00001229  00000+0  54165-4 0  9995
2 59403  43.0034 218.6704 0001429 268.6608  91.4080 15.27583485124329
STARLINK-31374          
1 59404U 24064G   26167.71680145  .00000940  00000+0  43703-4 0  9995
2 59404  43.0045 165.8628 0001850 271.1963  88.8677 15.27577435124703
STARLINK-31400          
1 59405U 24064H   26167.84248535  .00001007  00000+0  46104-4 0  9996
2 59405  43.0012 215.8899 0001192 276.4597  83.6119 15.27573736124393
STARLINK-31391          
1 59406U 24064J   26167.84634941 -.00000608  00000+0 -12598-4 0  9995
2 59406  43.0045 215.9189 0000882 276.2012  83.8739 15.27570779124392
STARLINK-31387          
1 59407U 24064K   26167.82078796  .00000275  00000+0  19523-4 0  9997
2 59407  42.9943 216.5844 0002761 282.7869  77.2674 15.27575832124382
